{
  "links": {
    "self": "http://www.neowsapp.com/rest/v1/neo/3724245"
  },
  "neo_reference_id": "3724245",
  "name": "(2015 OQ21)",
  "nasa_jpl_url": "http://ssd.jpl.nasa.gov/sbdb.cgi?sstr=3724245",
  "absolute_magnitude_h": 27.819,
  "estimated_diameter": {
    "kilometers": {
      "estimated_diameter_min": 0.01,
      "estimated_diameter_max": 0.02
    },
    "meters": {
      "estimated_diameter_min": 7.26,
      "estimated_diameter_max": 16.23
    },
    "miles": {
      "estimated_diameter_min": 0,
      "estimated_diameter_max": 0.01
    },
    "feet": {
      "estimated_diameter_min": 23.81,
      "estimated_diameter_max": 53.24
    }
  },
  "is_potentially_hazardous_asteroid": false,
  "close_approach_data": [
    {
      "close_approach_date": "1953-11-14",
      "epoch_date_close_approach": -509040000000,
      "relative_velocity": {
        "kilometers_per_second": "6.57",
        "kilometers_per_hour": "23661.38",
        "miles_per_hour": "14702.26"
      },
      "miss_distance": {
        "astronomical": "0.14",
        "lunar": "54.46",
        "kilometers": "20943702",
        "miles": "13013813"
      },
      "orbiting_body": "Venus"
    },
    {
      "close_approach_date": "1957-06-06",
      "epoch_date_close_approach": -396723600000,
      "relative_velocity": {
        "kilometers_per_second": "21.87",
        "kilometers_per_hour": "78727.29",
        "miles_per_hour": "48918.07"
      },
      "miss_distance": {
        "astronomical": "0.44",
        "lunar": "171.16",
        "kilometers": "65823064",
        "miles": "40900556"
      },
      "orbiting_body": "Earth"
    }
  ],
  "orbital_data": {
    "orbit_id": "5",
    "orbit_determination_date": "2015-07-27 06:17:35",
    "orbit_uncertainty": "5",
    "minimum_orbit_intersection": ".00201465",
    "jupiter_tisserand_invariant": "7.350",
    "epoch_osculation": "2457000.5",
    "eccentricity": ".3683826990903955",
    "semi_major_axis": ".7850454277210355",
    "inclination": "1.327850654502157",
    "ascending_node_longitude": "126.3408424592911",
    "orbital_period": "254.0625247837503",
    "perihelion_distance": ".4958482741485864",
    "perihelion_argument": "328.9968684625534",
    "aphelion_distance": "1.074242581293485",
    "perihelion_time": "2457066.003680954663",
    "mean_anomaly": "267.1829851185241",
    "mean_motion": "1.416974031516141",
    "equinox": "J2000"
  }
}
